[Satellite]
VERSION=1.1
NAME=ASTRA 3B
NICKNAME=ASTRA 3B
TLE1=1 36581U 10021A   15052.23655168  .00000113  00000-0  00000+0 0  9990
TLE2=2 36581   0.0814  42.5140 0002038 320.9107 256.0479  1.00274961 17369
